#aV2023 10 21  0  0  0.00000000     288 DD+AD WGS84 FIT  NGA
## 2284 518400.00000000   300.00000000 60238 0.0000000000000
+   32     1  2  3  4  5  6  7  8  9 10 11 12 13 14 15 16 17
+         18 19 20 21 22 23 24 25 26 27 28 29 30 31 32  0  0
+          0  0  0  0  0  0  0  0  0  0  0  0  0  0  0  0  0
+          0  0  0  0  0  0  0  0  0  0  0  0  0  0  0  0  0
+          0  0  0  0  0  0  0  0  0  0  0  0  0  0  0  0  0
++         2  2  2  2  2  2  2  2  2  2  2  2  2  2  2  2  2
++         2  2  2  2  2  2  2  2  2  2  2  2  2  2  2  0  0
++         0  0  0  0  0  0  0  0  0  0  0  0  0  0  0  0  0
++         0  0  0  0  0  0  0  0  0  0  0  0  0  0  0  0  0
++         0  0  0  0  0  0  0  0  0  0  0  0  0  0  0  0  0
%c cc cc ccc ccc cccc cccc cccc cccc ccccc ccccc ccccc ccccc
%c cc cc ccc ccc cccc cccc cccc cccc ccccc ccccc ccccc ccccc
%f  0.0000000  0.000000000  0.00000000000  0.000000000000000
%f  0.0000000  0.000000000  0.00000000000  0.000000000000000
%i    0    0    0    0      0      0      0      0         0
%i    0    0    0    0      0      0      0      0         0
/*      NGA, ST. LOUIS,MO.                                  
/*   EPHEMERIS COMPUTED FROM 2 DAYS OF DATA                 
/*   EPOCHA v8 SMOOTHER                                     
/*   G2139 IERS2010 SATIGS SATAPC                           
*  2023 10 21  4 10  0.00000000
P  1  13468.009205 -14299.548322  17364.906472    163.528049                    
V  1  -1697.051970  22782.033079  20016.236502     -0.003364                    
P  2  14806.797892  -7805.575869  21085.879027   -539.410007                    
V  2   -108.541529  25662.501883   9995.744937      0.047969                    
P  3  23085.055187 -12535.582679  -3647.573470    -66.120224                    
V  3   4967.902763    288.463294  31827.308658      0.235113                    
P  4  14937.061932  -6681.186776 -20937.508556    190.338171                    
V  4  20281.670641  17178.392379   8859.700805      0.107321                    
P  5 -24219.851359   3714.029698 -10550.052093   -147.298024                    
V  5  10824.171554  -7662.137821 -27937.133884     -0.014525                    
P  6  -6636.727490 -21342.699891 -14210.560841    525.859004                    
V  6   3858.127817 -17794.353403  24894.909308     -0.087064                    
P  7   5384.679502 -25474.338787  -3237.188824     34.845991                    
V  7   2977.452085   5143.023435 -31479.327201     -0.101433                    
P  8  21458.506417   1461.296633  15768.630232   -148.153235                    
V  8  15346.667182  12969.888974 -21578.020860     -0.018383                    
P  9   5228.603953 -14857.833179 -21468.958570    -26.487667                    
V  9  22353.479109  15281.958115  -5207.438574      0.108663                    
P 10   4056.619443  14382.057287  22125.620165    -58.170749                    
V 10 -25471.306734  10653.340217  -2593.381698     -0.015289                    
P 11 -12905.564883 -10162.364093 -20863.350856   -424.517540                    
V 11   5162.342638 -26009.923980   9415.264324     -0.171135                    
P 12 -24606.167343   9801.153619  -1620.057085   -438.166311                    
V 12  -2544.015397  -2031.703512  31792.381769     -0.042001                    
P 13 -21636.517804 -11684.528004  10110.973275    586.357994                    
V 13  -7771.341168 -10695.105929 -28219.561556      0.042695                    
P 14     47.349650 -16255.829642  21000.445911    220.054371                    
V 14  25111.494760  -9080.949111  -7263.187552      0.110136                    
P 15 -21041.896461   1882.658285  15748.590190     89.151678                    
V 15 -17194.567679 -12101.005351 -20658.478454      0.037385                    
P 16  22508.647762   3127.205991 -14427.952933   -435.739641                    
V 16 -16196.598445   7088.592428 -23813.958533      0.061960                    
P 17  -8914.712856 -20583.896994  14562.157758    723.788544                    
V 17  14724.845103  10106.722271  24144.406528     -0.001507                    
P 18  -4818.267539  25952.256768  -1835.088389   -455.159861                    
V 18  -2189.550698  -2672.033624 -32065.290623     -0.115666                    
P 19 -15939.249366 -20512.136630   6151.263271    387.814782                    
V 19   7313.877536   3852.926552  30483.019615      0.052061                    
P 20 -17848.873127  -4570.950827 -19018.362907    405.759579                    
V 20  19516.299458 -14628.295792 -14950.827779     -0.019521                    
P 21  15344.724650  -3123.081301  21871.648408    146.283684                    
V 21    -35.739676  26684.616533   4835.715428     -0.009008                    
P 22  -6823.724531 -13886.929481  22026.294753     98.993767                    
V 22  25473.883398  -8654.316634   2764.433234     -0.071507                    
P 23  -9639.024888  17483.801461  17433.591978     85.897796                    
V 23 -20733.384024   7949.733793 -19621.599906      0.059048                    
P 24 -14618.404822   9721.104096  19421.754226   -351.391157                    
V 24  -1046.260635 -25767.348555  12292.559885     -0.096678                    
P 25 -16178.928757  16990.635249 -12505.424522    473.706539                    
V 25 -15225.162830   3917.691580  25945.516446      0.017959                    
P 26  15297.384812   8814.510537 -20065.212055    221.931467                    
V 26 -21861.555184  12596.525412 -10845.436409     -0.023320                    
P 27  23029.733738  12532.305063   5209.224054    -58.249480                    
V 27   4152.416197   5923.195813 -30670.996129     -0.056822                    
P 28   6726.278356  22564.832813 -12315.850464    -29.445915                    
V 28  -3594.488364  15351.321984  26214.108886     -0.072297                    
P 29  -6361.919522  13996.622710 -21690.059542   -610.142418                    
V 29 -20939.309733 -17691.227727  -5385.109167     -0.001402                    
P 30  -1535.378613 -25632.429275   6345.781016   -476.543780                    
V 30   4605.554658  -7484.229779 -29941.739907      0.037680                    
P 31  11389.371853  14875.090397 -18858.236810   -224.880844                    
V 31  -4969.221435  23240.010340  15903.650243     -0.004174                    
P 32  13762.211659  19914.505525  11345.253058   -575.475981                    
V 32 -12662.480546  -6507.201073  27014.940866     -0.051237                    
EOF
